STARLINK-5331           
1 55280U 23010M   26160.76265443  .00000317  00000+0  34391-4 0  9992
2 55280  69.9994 172.4538 0003451 270.5845  89.4919 14.98327984186563
STARLINK-5298           
1 55281U 23010N   26160.73341863  .00000180  00000+0  22908-4 0  9990
2 55281  69.9986 172.3598 0003683 267.8735  92.2002 14.98330989186568
STARLINK-5330           
1 55282U 23010P   26160.37384665  .00126445  00000+0  10159-1 0  9993
2 55282  69.9983 173.1094 0008268 254.2876 105.7372 14.99272519186516
STARLINK-5317           
1 55283U 23010Q   26160.72925995 -.00001192  00000+0 -92151-4 0  9998
2 55283  69.9988 172.3468 0003341 261.7785  98.2995 14.98323568186569
STARLINK-5337           
1 55284U 23010R   26160.10767048  .00190145  00000+0  15338-1 0  9998
2 55284  69.9979 173.7846 0004539 260.2348  99.8299 14.98771305186463
STARLINK-5332           
1 55285U 23010S   26160.34925117  .00000587  00000+0  56949-4 0  9994
2 55285  69.9987 133.2710 0002849 268.3099  91.7734 14.98329788188379
STARLINK-5338           
1 55286U 23010T   26160.72484655  .00000497  00000+0  49423-4 0  9993
2 55286  69.9987 152.4632 0003863 266.6081  93.4636 14.98331970187055
STARLINK-5341           
1 55287U 23010U   26160.66624183 -.00004312  00000+0 -35411-3 0  9992
2 55287  69.9992 132.6975 0003675 263.7493  96.3248 14.98294555187539
STARLINK-5311           
1 55288U 23010V   26160.71249069  .00000519  00000+0  51311-4 0  9996
2 55288  69.9987 152.4173 0003721 266.0465  94.0268 14.98331129187054
STARLINK-5320           
1 55289U 23010W   26160.39522313 -.00000034  00000+0  49666-5 0  9991
2 55289  69.9987 153.3188 0003656 266.2403  93.8338 14.98329604187007
STARLINK-5266           
1 55290U 23010X   26160.72069024  .00000613  00000+0  59179-4 0  9996
2 55290  69.9987 152.4468 0004116 263.9685  96.1005 14.98332610187051
STARLINK-5327           
1 55291U 23010Y   26160.40357108  .00000108  00000+0  16863-4 0  9997
2 55291  69.9987 153.3462 0003760 265.6930  94.3799 14.98330346187001
STARLINK-5325           
1 55292U 23010Z   26160.70816729  .00000674  00000+0  64289-4 0  9993
2 55292  69.9986 152.4018 0003509 272.6901  87.3857 14.98333594187055
STARLINK-5287           
1 55293U 23010AA  26160.71232470  .00000285  00000+0  31707-4 0  9997
2 55293  69.9987 152.4175 0003699 266.3207  93.7529 14.98330410187051
STARLINK-5286           
1 55294U 23010AB  26160.44968219  .00000128  00000+0  18535-4 0  9995
2 55294  69.9987 172.9713 0003761 267.8559  92.2169 14.98331287186521
STARLINK-5293           
1 55295U 23010AC  26160.75845562 -.00000149  00000+0 -47145-5 0  9990
2 55295  69.9994 172.4482 0003853 267.2275  92.8443 14.98331338186572
STARLINK-5285           
1 55296U 23010AD  26160.69562804  .00000021  00000+0  95380-5 0  9990
2 55296  69.9993 152.3585 0003621 265.4956  94.5789 14.98330282187932
STARLINK-5284           
1 55297U 23010AE  26160.70397700  .00000308  00000+0  33587-4 0  9992
2 55297  69.9988 152.3879 0003533 267.8502  92.2252 14.98330673187055
STARLINK-5270           
1 55299U 23010AG  26160.69147516  .00001093  00000+0  99391-4 0  9997
2 55299  69.9991 152.3460 0003706 270.8391  89.2343 14.98321136187937
STARLINK-5308           
1 55300U 23010AH  26160.68728278 -.00000028  00000+0  54616-5 0  9999
2 55300  69.9991 152.3339 0003241 263.4351  96.6439 14.98340830187056
STARLINK-5321           
1 55302U 23010AK  26160.69980285  .00000349  00000+0  37019-4 0  9992
2 55302  69.9990 152.3704 0003425 269.8651  90.2115 14.98330420187055
STARLINK-5322           
1 55303U 23010AL  26160.77097679  .00000875  00000+0  81101-4 0  9993
2 55303  69.9985 172.0868 0003706 268.4248  91.6487 14.98336886186574
STARLINK-5318           
1 55304U 23010AM  26160.68312141 -.00000212  00000+0 -99722-5 0  9994
2 55304  69.9992 152.3159 0003645 260.8955  99.1792 14.98322539187056
STARLINK-5316           
1 55305U 23010AN  26160.67896029 -.00000070  00000+0  19261-5 0  9997
2 55305  69.9991 152.7051 0003666 266.7126  93.3614 14.98329479187058
STARLINK-5295           
1 55306U 23010AP  26160.64952044  .00000431  00000+0  43903-4 0  9994
2 55306  69.9991 132.7261 0003107 268.3395  91.7408 14.98333879187542
STARLINK-5288           
1 55307U 23010AQ  26160.65369229  .00000736  00000+0  69470-4 0  9998
2 55307  69.9994 132.7415 0003658 263.0416  97.0327 14.98329505187544
STARLINK-5315           
1 55309U 23010AS  26160.67036937  .00000110  00000+0  17057-4 0  9999
2 55309  69.9990 132.3987 0003398 269.3535  90.7234 14.98316377187555
STARLINK-5309           
1 55310U 23010AT  26160.64119695 -.00000267  00000+0 -14600-4 0  9997
2 55310  69.9986 132.6961 0003174 278.6703  81.4096 14.98309278187543
STARLINK-5312           
1 55311U 23010AU  26160.64534659  .00000672  00000+0  64125-4 0  9994
2 55311  69.9991 132.7110 0002911 270.6025  89.4801 14.98326928188414
STARLINK-5296           
1 55312U 23010AV  26160.34907699  .00000041  00000+0  11243-4 0  9993
2 55312  69.9990 133.1699 0003251 268.8787  91.2000 14.98329947188352
