OBJECT_NAME,OBJECT_ID,EPOCH,MEAN_MOTION,ECCENTRICITY,INCLINATION,RA_OF_ASC_NODE,ARG_OF_PERICENTER,MEAN_ANOMALY,EPHEMERIS_TYPE,CLASSIFICATION_TYPE,NORAD_CAT_ID,ELEMENT_SET_NO,REV_AT_EPOCH,BSTAR,MEAN_MOTION_DOT,MEAN_MOTION_DDOT
STARLINK-5331,2023-010M,2026-06-09T18:18:13.342752,14.98327984,.00034512,69.9994,172.4538,270.5845,89.4919,0,U,55280,999,18656,.34391296E-4,.317E-5,0
STARLINK-5298,2023-010N,2026-06-09T17:36:07.369632,14.98330989,.00036832,69.9986,172.3598,267.8735,92.2002,0,U,55281,999,18656,.22907944E-4,.18E-5,0
STARLINK-5330,2023-010P,2026-06-09T08:58:20.350560,14.99272519,.00082686,69.9983,173.1094,254.2876,105.7372,0,U,55282,999,18651,.10159063E-1,.126445E-2,0
STARLINK-5317,2023-010Q,2026-06-09T17:30:08.059680,14.98323568,.00033411,69.9988,172.3468,261.7785,98.2995,0,U,55283,999,18656,-.92150798E-4,-.1192E-4,0
STARLINK-5337,2023-010R,2026-06-09T02:35:02.729472,14.98771305,.00045392,69.9979,173.7846,260.2348,99.8299,0,U,55284,999,18646,.15338376E-1,.190145E-2,0
STARLINK-5332,2023-010S,2026-06-09T08:22:55.301088,14.98329788,.0002849,69.9987,133.2710,268.3099,91.7734,0,U,55285,999,18837,.5694863E-4,.587E-5,0
STARLINK-5338,2023-010T,2026-06-09T17:23:46.741920,14.98331970,.00038638,69.9987,152.4632,266.6081,93.4636,0,U,55286,999,18705,.49423143E-4,.497E-5,0
STARLINK-5341,2023-010U,2026-06-09T15:59:23.294112,14.98294555,.0003675,69.9992,132.6975,263.7493,96.3248,0,U,55287,999,18753,-.35410761E-3,-.4312E-4,0
STARLINK-5311,2023-010V,2026-06-09T17:05:59.195616,14.98331129,.00037217,69.9987,152.4173,266.0465,94.0268,0,U,55288,999,18705,.51311142E-4,.519E-5,0
STARLINK-5320,2023-010W,2026-06-09T09:29:07.278432,14.98329604,.00036564,69.9987,153.3188,266.2403,93.8338,0,U,55289,999,18700,.4966576E-5,-.34E-6,0
STARLINK-5266,2023-010X,2026-06-09T17:17:47.636736,14.98332610,.00041167,69.9987,152.4468,263.9685,96.1005,0,U,55290,999,18705,.59179072E-4,.613E-5,0
STARLINK-5327,2023-010Y,2026-06-09T09:41:08.541312,14.98330346,.000376,69.9987,153.3462,265.6930,94.3799,0,U,55291,999,18700,.16863E-4,.108E-5,0
STARLINK-5325,2023-010Z,2026-06-09T16:59:45.653856,14.98333594,.00035096,69.9986,152.4018,272.6901,87.3857,0,U,55292,999,18705,.64288922E-4,.674E-5,0
STARLINK-5287,2023-010AA,2026-06-09T17:05:44.854080,14.98330410,.00036995,69.9987,152.4175,266.3207,93.7529,0,U,55293,999,18705,.31706532E-4,.285E-5,0
STARLINK-5286,2023-010AB,2026-06-09T10:47:32.541216,14.98331287,.00037617,69.9987,172.9713,267.8559,92.2169,0,U,55294,999,18652,.18534638E-4,.128E-5,0
STARLINK-5293,2023-010AC,2026-06-09T18:12:10.565568,14.98331338,.00038532,69.9994,172.4482,267.2275,92.8443,0,U,55295,999,18657,-.4714546E-5,-.149E-5,0
STARLINK-5285,2023-010AD,2026-06-09T16:41:42.262656,14.98330282,.00036214,69.9993,152.3585,265.4956,94.5789,0,U,55296,999,18793,.9538007E-5,.21E-6,0
STARLINK-5284,2023-010AE,2026-06-09T16:53:43.612800,14.98330673,.00035332,69.9988,152.3879,267.8502,92.2252,0,U,55297,999,18705,.33586823E-4,.308E-5,0
STARLINK-5270,2023-010AG,2026-06-09T16:35:43.453824,14.98321136,.00037067,69.9991,152.3460,270.8391,89.2343,0,U,55299,999,18793,.99391388E-4,.1093E-4,0
STARLINK-5308,2023-010AH,2026-06-09T16:29:41.232192,14.98340830,.00032414,69.9991,152.3339,263.4351,96.6439,0,U,55300,999,18705,.5461611E-5,-.28E-6,0
STARLINK-5321,2023-010AK,2026-06-09T16:47:42.966240,14.98330420,.00034256,69.9990,152.3704,269.8651,90.2115,0,U,55302,999,18705,.37018732E-4,.349E-5,0
STARLINK-5322,2023-010AL,2026-06-09T18:30:12.394656,14.98336886,.00037064,69.9985,172.0868,268.4248,91.6487,0,U,55303,999,18657,.81101231E-4,.875E-5,0
STARLINK-5318,2023-010AM,2026-06-09T16:23:41.689824,14.98322539,.00036454,69.9992,152.3159,260.8955,99.1792,0,U,55304,999,18705,-.997222E-5,-.212E-5,0
STARLINK-5316,2023-010AN,2026-06-09T16:17:42.169056,14.98329479,.00036663,69.9991,152.7051,266.7126,93.3614,0,U,55305,999,18705,.1926054E-5,-.7E-6,0
STARLINK-5295,2023-010AP,2026-06-09T15:35:18.566016,14.98333879,.00031073,69.9991,132.7261,268.3395,91.7408,0,U,55306,999,18754,.4390306E-4,.431E-5,0
STARLINK-5288,2023-010AQ,2026-06-09T15:41:19.013856,14.98329505,.00036582,69.9994,132.7415,263.0416,97.0327,0,U,55307,999,18754,.69470042E-4,.736E-5,0
STARLINK-5315,2023-010AS,2026-06-09T16:05:19.913568,14.98316377,.00033989,69.9990,132.3987,269.3535,90.7234,0,U,55309,999,18755,.17056812E-4,.11E-5,0
STARLINK-5309,2023-010AT,2026-06-09T15:23:19.416480,14.98309278,.00031745,69.9986,132.6961,278.6703,81.4096,0,U,55310,999,18754,-.14599736E-4,-.267E-5,0
STARLINK-5312,2023-010AU,2026-06-09T15:29:17.945376,14.98326928,.00029112,69.9991,132.7110,270.6025,89.4801,0,U,55311,999,18841,.64124525E-4,.672E-5,0
STARLINK-5296,2023-010AV,2026-06-09T08:22:40.251936,14.98329947,.00032518,69.9990,133.1699,268.8787,91.2000,0,U,55312,999,18835,.11243339E-4,.41E-6,0
